STARLINK-1511
1 25767C 20038AP  21325.17742830 -.00016473  00000-0 -11039-2 0  3259
2 25767  53.0554  62.4385 0001240  79.7705 339.2804 15.06409998    14
